{"type": "FeatureCollection", "features": [ {"type": "Feature", "properties": {"norad_id": 28649, "name": "IRS-P5 (CARTOSAT-1)", "group": "resource", "lat": -59.41842032052325, "lon": -167.5076117556303, "alt_km": 604.0483258699433, "timestamp": "2025-12-25T14:48:24.458333+00:00", "meta": {"OBJECT_NAME": "IRS-P5 (CARTOSAT-1)", "OBJECT_ID": "2005-017A", "EPOCH": "2025-12-25T02:27:12.423168", "MEAN_MOTION": 14.90444639, "ECCENTRICITY": 5.056e-05, "INCLINATION": 97.5483, "RA_OF_ASC_NODE": 24.9669, "ARG_OF_PERICENTER": 63.7048, "MEAN_ANOMALY": 296.4223, "EPHEMERIS_TYPE": 0, "CLASSIFICATION_TYPE": "U", "NORAD_CAT_ID": 28649, "ELEMENT_SET_NO": 999, "REV_AT_EPOCH": 11788, "BSTAR": 0.00017427847, "MEAN_MOTION_DOT": 1.647e-05, "MEAN_MOTION_DDOT": 0}, "tle": {"line1": "1 28649U 05017A   25359.10222712  .00001647  00000+0  17428-3 0  9995", "line2": "2 28649  97.5483  24.9669 0000505  63.7048 296.4223 14.90444639117888"}}, "geometry": {"type": "Point", "coordinates": [-167.5076117556303, -59.41842032052325]}}, {"type": "Feature", "properties": {"norad_id": 28893, "name": "SINAH 1", "group": "resource", "lat": 81.72358656159982, "lon": 41.06081778947423, "alt_km": 661.9626119718678, "timestamp": "2025-12-25T14:48:24.458342+00:00", "meta": {"OBJECT_NAME": "SINAH 1", "OBJECT_ID": "2005-043D", "EPOCH": "2025-12-25T07:50:18.250368", "MEAN_MOTION": 14.6397532, "ECCENTRICITY": 0.00157228, "INCLINATION": 98.2609, "RA_OF_ASC_NODE": 127.918, "ARG_OF_PERICENTER": 100.3021, "MEAN_ANOMALY": 259.9955, "EPHEMERIS_TYPE": 0, "CLASSIFICATION_TYPE": "U", "NORAD_CAT_ID": 28893, "ELEMENT_SET_NO": 999, "REV_AT_EPOCH": 7508, "BSTAR": 9.756359e-05, "MEAN_MOTION_DOT": 4.63e-06, "MEAN_MOTION_DDOT": 0}, "tle": {"line1": "1 28893U 05043D   25359.32660012  .00000463  00000+0  97564-4 0  9993", "line2": "2 28893  98.2609 127.9180 0015722 100.3021 259.9955 14.63975320 75082"}}, "geometry": {"type": "Point", "coordinates": [41.06081778947423, 81.72358656159982]}}, {"type": "Feature", "properties": {"norad_id": 29079, "name": "EROS B", "group": "resource", "lat": -19.616994104921535, "lon": 119.47762832212875, "alt_km": 354.3457900047997, "timestamp": "2025-12-25T14:48:24.458367+00:00", "meta": {"OBJECT_NAME": "EROS B", "OBJECT_ID": "2006-014A", "EPOCH": "2025-12-25T07:15:15.423840", "MEAN_MOTION": 15.72409375, "ECCENTRICITY": 0.00044291, "INCLINATION": 97.3449, "RA_OF_ASC_NODE": 116.5109, "ARG_OF_PERICENTER": 312.5736, "MEAN_ANOMALY": 47.5154, "EPHEMERIS_TYPE": 0, "CLASSIFICATION_TYPE": "U", "NORAD_CAT_ID": 29079, "ELEMENT_SET_NO": 999, "REV_AT_EPOCH": 9277, "BSTAR": 0.0014815178, "MEAN_MOTION_DOT": 0.00200899, "MEAN_MOTION_DDOT": 0}, "tle": {"line1": "1 29079U 06014A   25359.30226185  .00200899  00000+0  14815-2 0  9997", "line2": "2 29079  97.3449 116.5109 0004429 312.5736  47.5154 15.72409375 92778"}}, "geometry": {"type": "Point", "coordinates": [119.47762832212875, -19.616994104921535]}}, {"type": "Feature", "properties": {"norad_id": 29228, "name": "RESURS-DK 1", "group": "resource", "lat": 62.60032122238391, "lon": -156.28765579907164, "alt_km": 526.224099458067, "timestamp": "2025-12-25T14:48:24.458395+00:00", "meta": {"OBJECT_NAME": "RESURS-DK 1", "OBJECT_ID": "2006-021A", "EPOCH": "2025-12-25T06:23:18.536064", "MEAN_MOTION": 15.12229217, "ECCENTRICITY": 0.00069126, "INCLINATION": 69.9336, "RA_OF_ASC_NODE": 69.4642, "ARG_OF_PERICENTER": 247.4897, "MEAN_ANOMALY": 112.5537, "EPHEMERIS_TYPE": 0, "CLASSIFICATION_TYPE": "U", "NORAD_CAT_ID": 29228, "ELEMENT_SET_NO": 999, "REV_AT_EPOCH": 7627, "BSTAR": 0.00017972464, "MEAN_MOTION_DOT": 3.007e-05, "MEAN_MOTION_DDOT": 0}, "tle": {"line1": "1 29228U 06021A   25359.26618676  .00003007  00000+0  17972-3 0  9996", "line2": "2 29228  69.9336  69.4642 0006912 247.4897 112.5537 15.12229217 76279"}}, "geometry": {"type": "Point", "coordinates": [-156.28765579907164, 62.60032122238391]}}, {"type": "Feature", "properties": {"norad_id": 29268, "name": "ARIRANG-2 (KOMPSAT-2)", "group": "resource", "lat": 19.000486049709114, "lon": -175.2524547582252, "alt_km": 682.7448005359574, "timestamp": "2025-12-25T14:48:24.458412+00:00", "meta": {"OBJECT_NAME": "ARIRANG-2 (KOMPSAT-2)", "OBJECT_ID": "2006-031A", "EPOCH": "2025-12-25T07:18:33.817248", "MEAN_MOTION": 14.64503757, "ECCENTRICITY": 0.00131319, "INCLINATION": 97.8257, "RA_OF_ASC_NODE": 187.1649, "ARG_OF_PERICENTER": 265.7439, "MEAN_ANOMALY": 267.4104, "EPHEMERIS_TYPE": 0, "CLASSIFICATION_TYPE": "U", "NORAD_CAT_ID": 29268, "ELEMENT_SET_NO": 999, "REV_AT_EPOCH": 3602, "BSTAR": 4.871759e-05, "MEAN_MOTION_DOT": 2.13e-06, "MEAN_MOTION_DDOT": 0}, "tle": {"line1": "1 29268U 06031A   25359.30455807  .00000213  00000+0  48718-4 0  9990", "line2": "2 29268  97.8257 187.1649 0013131 265.7439 267.4104 14.64503757 36025"}}, "geometry": {"type": "Point", "coordinates": [-175.2524547582252, 19.000486049709114]}}, {"type": "Feature", "properties": {"norad_id": 29709, "name": "LAPAN-TUBSAT", "group": "resource", "lat": -34.296487064849764, "lon": 164.4457476185943, "alt_km": 626.8976504150241, "timestamp": "2025-12-25T14:48:24.458425+00:00", "meta": {"OBJECT_NAME": "LAPAN-TUBSAT", "OBJECT_ID": "2007-001A", "EPOCH": "2025-12-25T05:45:44.186400", "MEAN_MOTION": 14.85687715, "ECCENTRICITY": 0.0013205, "INCLINATION": 98.1265, "RA_OF_ASC_NODE": 349.654, "ARG_OF_PERICENTER": 36.9096, "MEAN_ANOMALY": 323.3024, "EPHEMERIS_TYPE": 0, "CLASSIFICATION_TYPE": "U", "NORAD_CAT_ID": 29709, "ELEMENT_SET_NO": 999, "REV_AT_EPOCH": 2532, "BSTAR": 4.6840909e-05, "MEAN_MOTION_DOT": 3.49e-06, "MEAN_MOTION_DDOT": 0}, "tle": {"line1": "1 29709U 07001A   25359.24009475  .00000349  00000+0  46841-4 0  9992", "line2": "2 29709  98.1265 349.6540 0013205  36.9096 323.3024 14.85687715 25326"}}, "geometry": {"type": "Point", "coordinates": [164.4457476185943, -34.296487064849764]}}, {"type": "Feature", "properties": {"norad_id": 31113, "name": "HAIYANG-1B", "group": "resource", "lat": 81.23594244669053, "lon": -88.56949949336251, "alt_km": 780.393718323493, "timestamp": "2025-12-25T14:48:24.458435+00:00", "meta": {"OBJECT_NAME": "HAIYANG-1B", "OBJECT_ID": "2007-010A", "EPOCH": "2025-12-24T19:56:29.461920", "MEAN_MOTION": 14.30968874, "ECCENTRICITY": 0.00136155, "INCLINATION": 98.3329, "RA_OF_ASC_NODE": 342.6102, "ARG_OF_PERICENTER": 3.3672, "MEAN_ANOMALY": 356.7601, "EPHEMERIS_TYPE": 0, "CLASSIFICATION_TYPE": "U", "NORAD_CAT_ID": 31113, "ELEMENT_SET_NO": 999, "REV_AT_EPOCH": 97569, "BSTAR": 5.8199808e-05, "MEAN_MOTION_DOT": 1.12e-06, "MEAN_MOTION_DDOT": 0}, "tle": {"line1": "1 31113U 07010A   25358.83089655  .00000112  00000+0  58200-4 0  9996", "line2": "2 31113  98.3329 342.6102 0013615   3.3672 356.7601 14.30968874975694"}}, "geometry": {"type": "Point", "coordinates": [-88.56949949336251, 81.23594244669053]}}, {"type": "Feature", "properties": {"norad_id": 31598, "name": "COSMO-SKYMED 1", "group": "resource", "lat": -77.72261408354822, "lon": -135.3485669129083, "alt_km": 587.8454768528827, "timestamp": "2025-12-25T14:48:24.458446+00:00", "meta": {"OBJECT_NAME": "COSMO-SKYMED 1", "OBJECT_ID": "2007-023A", "EPOCH": "2025-12-25T07:08:21.965280", "MEAN_MOTION": 14.95856664, "ECCENTRICITY": 0.00012418, "INCLINATION": 97.884, "RA_OF_ASC_NODE": 184.7798, "ARG_OF_PERICENTER": 77.7608, "MEAN_ANOMALY": 282.3752, "EPHEMERIS_TYPE": 0, "CLASSIFICATION_TYPE": "U", "NORAD_CAT_ID": 31598, "ELEMENT_SET_NO": 999, "REV_AT_EPOCH": 378, "BSTAR": 0.00028549353, "MEAN_MOTION_DOT": 3.131e-05, "MEAN_MOTION_DDOT": 0}, "tle": {"line1": "1 31598U 07023A   25359.29747645  .00003131  00000+0  28549-3 0  9994", "line2": "2 31598  97.8840 184.7798 0001241  77.7608 282.3752 14.95856664  3782"}}, "geometry": {"type": "Point", "coordinates": [-135.3485669129083, -77.72261408354822]}}, {"type": "Feature", "properties": {"norad_id": 31698, "name": "TERRASAR-X", "group": "resource", "lat": -63.882589101397194, "lon": 20.27719236582567, "alt_km": 516.6068157338768, "timestamp": "2025-12-25T14:48:24.458455+00:00", "meta": {"OBJECT_NAME": "TERRASAR-X", "OBJECT_ID": "2007-026A", "EPOCH": "2025-12-24T13:47:55.330080", "MEAN_MOTION": 15.19151427, "ECCENTRICITY": 0.00018153, "INCLINATION": 97.4444, "RA_OF_ASC_NODE": 3.7823, "ARG_OF_PERICENTER": 79.9991, "MEAN_ANOMALY": 280.1449, "EPHEMERIS_TYPE": 0, "CLASSIFICATION_TYPE": "U", "NORAD_CAT_ID": 31698, "ELEMENT_SET_NO": 999, "REV_AT_EPOCH": 2671, "BSTAR": 4.8169766e-05, "MEAN_MOTION_DOT": 9.45e-06, "MEAN_MOTION_DDOT": 0}, "tle": {"line1": "1 31698U 07026A   25358.57494595  .00000945  00000+0  48170-4 0  9994", "line2": "2 31698  97.4444   3.7823 0001815  79.9991 280.1449 15.19151427 26713"}}, "geometry": {"type": "Point", "coordinates": [20.27719236582567, -63.882589101397194]}}, {"type": "Feature", "properties": {"norad_id": 32060, "name": "WORLDVIEW-1 (WV-1)", "group": "resource", "lat": 1.9906889491684252, "lon": -62.83293009316306, "alt_km": 498.8806380875303, "timestamp": "2025-12-25T14:48:24.458465+00:00", "meta": {"OBJECT_NAME": "WORLDVIEW-1 (WV-1)", "OBJECT_ID": "2007-041A", "EPOCH": "2025-12-25T07:43:31.061856", "MEAN_MOTION": 15.23960036, "ECCENTRICITY": 0.00031421, "INCLINATION": 97.3822, "RA_OF_ASC_NODE": 116.6184, "ARG_OF_PERICENTER": 354.2284, "MEAN_ANOMALY": 5.8916, "EPHEMERIS_TYPE": 0, "CLASSIFICATION_TYPE": "U", "NORAD_CAT_ID": 32060, "ELEMENT_SET_NO": 999, "REV_AT_EPOCH": 1639, "BSTAR": 0.00035010562, "MEAN_MOTION_DOT": 8.403e-05, "MEAN_MOTION_DDOT": 0}, "tle": {"line1": "1 32060U 07041A   25359.32188729  .00008403  00000+0  35011-3 0  9994", "line2": "2 32060  97.3822 116.6184 0003142 354.2284   5.8916 15.23960036 16392"}}, "geometry": {"type": "Point", "coordinates": [-62.83293009316306, 1.9906889491684252]}}]}